0 WESTFORD NEEDLES
1 02379U 63014Z   13273.11255385  .00005463  00000-0  11378+0 0  4320
2 02379 085.5752 322.7969 2337538 287.6489 048.4885 08.80480318598872
0 WESTFORD NEEDLES
1 02379U 63014Z   13281.07176238  .00000584  00000-0  11162-1 0  4336
2 02379 085.6094 321.3211 2367401 278.0939 077.5443 08.80502235599577
0 WESTFORD NEEDLES
1 02379U 63014Z   13282.09228731  .00000450  00000-0  86094-2 0  4345
2 02379 085.6094 321.1339 2367610 276.9152 072.4093 08.80502755599664
